IRIDIUM 119             
1 42959U 17061E   24064.90452099  .00000142  00000+0  43650-4 0  9996
2 42959  86.4014  13.8820 0001990  90.1315 270.0109 14.34218534335234
IRIDIUM 107             
1 42960U 17061F   24064.92355012  .00000033  00000+0  45790-5 0  9994
2 42960  86.4015  13.8903 0002275  94.1023 266.0433 14.34217612335248
IRIDIUM 132             
1 42961U 17061G   24064.92989037  .00000213  00000+0  68847-4 0  9992
2 42961  86.4015  13.8730 0002219  92.5992 267.5458 14.34219493335244
IRIDIUM 136             
1 42962U 17061H   24064.89183489  .00000194  00000+0  62268-4 0  9995
2 42962  86.4015  13.8916 0001960  84.3044 275.8375 14.34219099335253
IRIDIUM 139             
1 42963U 17061J   24064.89817854  .00000274  00000+0  90620-4 0  9998
2 42963  86.4015  13.9375 0002274  90.8060 269.3396 14.34219367335263
IRIDIUM 125             
1 42964U 17061K   24064.95526331  .00000322  00000+0  10800-3 0  9998
2 42964  86.4018  13.9595 0001975  95.2437 264.8985 14.34218501335280
IRIDIUM 135             
1 43070U 17083A   24064.92938708  .00000288  00000+0  95653-4 0  9994
2 43070  86.3970 310.6892 0002457  82.6017 277.5458 14.34217323324579
IRIDIUM 138             
1 43071U 17083B   24064.95475477  .00000361  00000+0  12181-3 0  9993
2 43071  86.3957 310.4089 0001841  88.4265 271.7141 14.34218253324563
